MEAN_MOTION;ECCENTRICITY;INCLINATION;RA_OF_ASC_NODE;ARG_OF_PERICENTER;MEAN_ANOMALY;BSTAR;MEAN_MOTION_DOT;MEAN_MOTION_DDOT;TYPE
1.00269849;0.0002174;0.0217;167.6452;183.7759;319.5698;0;-2.57E-6;0;Intelsat
1.00269714;0.0002187;0.0224;165.2945;186.4861;67.8433;0;-2.58E-6;0;Intelsat
1.00269555;0.00022;0.0235;163.7438;188.6868;241.4779;0;-2.6E-6;0;Intelsat
1.00269212;0.000222;0.0246;162.6303;191.4941;68.2421;0;-2.62E-6;0;Intelsat
1.00268908;0.000224;0.0258;162.1778;198.6709;268.9064;0;-2.64E-6;0;Intelsat
1.00268722;0.0002244;0.0262;161.4923;200.8845;36.936;0;-2.65E-6;0;Intelsat
1.00268438;0.0002263;0.0273;161.3741;203.5752;280.3057;0;-2.67E-6;0;Intelsat
1.00270699;0.0002255;0.0035;88.4098;278.2366;35.4504;0;-2.68E-6;0;Intelsat
1.00270609;0.0002255;0.0192;154.8406;210.7792;140.1506;0;-2.69E-6;0;Intelsat
1.00270515;0.0002224;0.0195;155.5265;210.0699;295.6409;0;-2.69E-6;0;Intelsat
1.00270303;0.0002215;0.0199;153.511;213.0932;271.5132;0;-2.7E-6;0;Intelsat
1.00270166;0.0002204;0.0206;152.5957;214.1203;45.9278;0;-2.7E-6;0;Intelsat
1.00271705;0.0002193;0.0169;147.2678;213.8473;305.6277;0;-2.7E-6;0;Intelsat
1.00272364;0.000221;0.0166;147.6193;215.4534;47.4331;0;-2.7E-6;0;Intelsat
1.00272881;0.0002183;0.0118;140.251;227.587;275.9161;0;-2.7E-6;0;Intelsat
1.00272884;0.0002185;0.0116;134.9238;233.5166;44.8741;0;-2.69E-6;0;Intelsat
1.00272728;0.0002182;0.0147;128.6975;242.677;18.8356;0;-2.68E-6;0;Intelsat
1.00272723;0.0002183;0.0148;128.5861;243.0847;44.4638;0;-2.68E-6;0;Intelsat
1.00272576;0.0002175;0.0176;122.4649;252.2214;18.3195;0;-2.67E-6;0;Intelsat
1.00272426;0.0002169;0.0209;117.9876;259.8043;18.0389;0;-2.66E-6;0;Intelsat
1.00272421;0.0002169;0.021;117.9412;260.0993;43.7073;0;-2.66E-6;0;Intelsat
1.00272096;0.0002093;0.0127;244.4771;137.7097;246.8758;0;-2.66E-6;0;Intelsat
1.00271255;0.0002042;0.0113;241.9629;141.0993;41.4841;0;-2.65E-6;0;Intelsat
1.00271256;0.0002031;0.0151;227.3746;157.2625;260.786;0;-2.65E-6;0;Intelsat
1.00271156;0.0002027;0.0161;224.4651;161.0795;41.7943;0;-2.64E-6;0;Intelsat
1.00271067;0.0002008;0.0178;218.5919;168.8761;273.094;0;-2.64E-6;0;Intelsat
1.00271067;0.0002008;0.0178;218.5919;168.8761;273.094;0;-2.64E-6;0;Intelsat
1.00270943;0.0002028;0.0182;216.205;173.0475;38.5367;0;-2.63E-6;0;Intelsat
1.00272591;0.0001989;0.0187;215.3916;169.7677;139.5701;0;-2.64E-6;0;Intelsat
1.00272505;0.0001984;0.019;212.0863;173.709;251.6362;0;-2.63E-6;0;Intelsat
1.00272463;0.0001948;0.0005;153.5224;235.5664;43.8192;0;-2.62E-6;0;Intelsat
1.0026923;0.000194;0.0218;190.2629;199.4215;250.5611;0;-2.62E-6;0;Intelsat
1.00269068;0.0001929;0.0221;188.8328;201.0458;45.8558;0;-2.61E-6;0;Intelsat
1.00268806;0.0001913;0.0226;187.7301;202.1944;253.1141;0;-2.6E-6;0;Intelsat
1.00268641;0.0001905;0.0228;186.8768;203.4463;48.2096;0;-2.59E-6;0;Intelsat
1.00268423;0.0001891;0.0231;186.2352;203.5802;230.1352;0;-2.58E-6;0;Intelsat
1.00268255;0.0001881;0.0231;185.774;204.5688;25.0722;0;-2.57E-6;0;Intelsat
1.00267995;0.0001872;0.0232;185.3163;204.2917;266.0801;0;-2.56E-6;0;Intelsat
1.00267875;0.0001865;0.0231;184.9368;204.9669;28.3058;0;-2.55E-6;0;Intelsat
1.0026766;0.000187;0.0227;184.4348;204.5344;262.4747;0;-2.54E-6;0;Intelsat
1.00267542;0.0001862;0.0226;183.9071;205.3763;31.746;0;-2.52E-6;0;Intelsat
1.00267405;0.0001882;0.0222;183.0959;205.3318;213.9729;0;-2.52E-6;0;Intelsat
1.00270515;0.0001854;0.0218;182.5591;200.338;297.1594;0;-2.51E-6;0;Intelsat
1.00273169;0.0001827;0.0194;164.2081;219.1431;70.925;0;-2.5E-6;0;Intelsat
1.00273114;0.0001846;0.0202;163.3048;219.8945;135.3972;0;-2.5E-6;0;Intelsat
1.00273004;0.0001845;0.0202;162.2567;220.466;300.2349;0;-2.49E-6;0;Intelsat
1.00272918;0.0001852;0.0196;161.8033;221.2875;43.5358;0;-2.49E-6;0;Intelsat
1.00272815;0.0001858;0.02;159.1682;223.8799;147.2225;0;-2.48E-6;0;Intelsat
1.0027269;0.0001866;0.0186;158.3103;224.2485;250.1589;0;-2.48E-6;0;Intelsat
1.00272519;0.0001859;0.0116;143.9642;238.8624;20.6958;0;-2.47E-6;0;Intelsat
1.00272488;0.0001859;0.0117;143.7289;239.1416;46.5517;0;-2.47E-6;0;Intelsat
1.00272077;0.0001874;0.0161;130.0506;252.6398;23.6145;0;-2.47E-6;0;Intelsat
1.00272045;0.0001874;0.0162;130.0319;252.6639;49.5262;0;-2.46E-6;0;Intelsat
1.00271629;0.0001899;0.021;119.9658;262.9385;26.2308;0;-2.47E-6;0;Intelsat
1.00271598;0.0001898;0.0211;119.8426;263.0417;52.1678;0;-2.47E-6;0;Intelsat
1.00272027;0.000179;0.0132;259.7076;123.2574;28.9719;0;-2.48E-6;0;Intelsat
1.00271962;0.0001788;0.0129;259.335;123.573;54.9459;0;-2.48E-6;0;Intelsat
1.00271696;0.0001826;0.0124;252.0901;131.9479;287.0297;0;-2.5E-6;0;Intelsat
1.00271446;0.0001836;0.0153;245.8856;138.6167;125.5802;0;-2.51E-6;0;Intelsat
1.00271363;0.0001858;0.0162;242.1294;142.6292;289.1034;0;-2.52E-6;0;Intelsat
1.0027222;0.0001906;0.0178;240.0624;143.5502;163.4976;0;-2.55E-6;0;Intelsat
1.00271901;0.0001942;0.0188;236.2342;148.6247;61.3833;0;-2.57E-6;0;Intelsat
1.00269388;0.0002093;0.0191;218.2707;171.7621;263.5492;0;-2.59E-6;0;Intelsat
1.00269165;0.0002128;0.019;215.7264;175.326;58.0052;0;-2.6E-6;0;Intelsat
1.00268917;0.0002165;0.019;213.7039;179.5397;263.1294;0;-2.62E-6;0;Intelsat
1.00268711;0.0002202;0.0189;212.0496;182.8373;56.9869;0;-2.63E-6;0;Intelsat
1.002685;0.0002234;0.0187;210.892;185.7884;262.505;0;-2.64E-6;0;Intelsat
1.0026834;0.0002271;0.0185;209.9132;188.7398;55.9988;0;-2.65E-6;0;Intelsat
1.00268194;0.0002303;0.0181;209.2558;190.9491;235.848;0;-2.66E-6;0;Intelsat
1.00268091;0.0002325;0.0176;208.437;193.9071;29.2082;0;-2.65E-6;0;Intelsat
1.00267898;0.0002383;0.0159;207.0369;199.3766;53.8393;0;-2.65E-6;0;Intelsat
1.00268496;0.000227;0.0146;205.4291;196.5872;265.5426;0;-2.65E-6;0;Intelsat
1.00270056;0.0002348;0.0143;203.2197;201.0833;6.9246;0;-2.65E-6;0;Intelsat
1.00272999;0.000236;0.0162;176.0096;230.553;134.2451;0;-2.65E-6;0;Intelsat
1.00272791;0.0002308;0.0171;176.057;228.4228;35.47;0;-2.64E-6;0;Intelsat
1.00272669;0.0002326;0.0165;179.6613;227.0015;266.5063;0;-2.63E-6;0;Intelsat
1.00272469;0.0002286;0.0174;175.9937;228.2681;38.4941;0;-2.62E-6;0;Intelsat
1.00272427;0.0002305;0.0221;126.9693;278.3679;141.0874;0;-2.62E-6;0;Intelsat
1.00272303;0.0002318;0.0271;112.6655;294.6339;38.272;0;-2.61E-6;0;Intelsat
1.00272241;0.0002332;0.0293;106.8757;301.6218;169.9539;0;-2.61E-6;0;Intelsat
1.0027214;0.0002336;0.0312;100.9841;308.8403;38.5201;0;-2.6E-6;0;Intelsat
1.00269772;0.0002285;0.0124;272.038;144.582;132.5125;0;-2.6E-6;0;Intelsat
1.00271589;0.0002297;0.0114;271.4781;142.7819;241.4175;0;-2.6E-6;0;Intelsat
1.00271573;0.0002296;0.0113;271.434;142.9063;267.2541;0;-2.6E-6;0;Intelsat
1.00271441;0.0002296;0.0107;271.6101;143.6365;35.9033;0;-2.6E-6;0;Intelsat
1.00271356;0.0002287;0.0139;262.0188;154.227;253.6718;0;-2.59E-6;0;Intelsat
1.002712;0.0002297;0.0145;261.8424;155.9131;36.2124;0;-2.59E-6;0;Intelsat
1.00271043;0.0002298;0.0156;259.3186;159.8295;268.0537;0;-2.58E-6;0;Intelsat
1.00270964;0.0002294;0.0163;259.3632;160.3247;33.8848;0;-2.58E-6;0;Intelsat
1.00272748;0.0002214;0.017;258.5715;159.3955;246.1179;0;-2.57E-6;0;Intelsat
1.00272899;0.0002228;0.0173;258.8072;160.0625;40.6876;0;-2.56E-6;0;Intelsat
1.00272686;0.000221;0.018;257.8896;161.2692;247.7364;0;-2.56E-6;0;Intelsat
1.00272567;0.0002205;0.0184;259.4593;160.2267;42.6943;0;-2.55E-6;0;Intelsat
1.00269244;0.0002163;0.0161;248.7795;175.0362;245.8765;0;-2.54E-6;0;Intelsat
1.00269123;0.0002146;0.0158;247.8425;176.0646;15.356;0;-2.53E-6;0;Intelsat
1.00268867;0.0002107;0.0152;247.8411;176.0156;245.1426;0;-2.51E-6;0;Intelsat
1.00268743;0.0002095;0.0149;247.4871;176.5756;18.0025;0;-2.5E-6;0;Intelsat
1.00268508;0.0002065;0.0141;248.7404;175.2392;251.3011;0;-2.49E-6;0;Intelsat
1.00268401;0.0002051;0.0138;248.9446;175.0324;20.8519;0;-2.47E-6;0;Intelsat
1.00268277;0.0002038;0.0131;249.4557;173.8092;165.5344;0;-2.47E-6;0;Intelsat
1.00268087;0.0002019;0.0121;253.1287;170.5079;49.8749;0;-2.45E-6;0;Intelsat
1.00268009;0.0002023;0.0113;252.9954;170.247;151.8318;0;-2.44E-6;0;Intelsat
1.00268;0.0002024;0.0114;253.314;170.0003;173.6878;0;-2.44E-6;0;Intelsat
1.00275257;0.0001811;0.0108;256.3839;153.14;271.3353;0;-2.44E-6;0;Intelsat
1.00274052;0.0001725;0.0103;256.2675;153.8632;14.3722;0;-2.43E-6;0;Intelsat
1.00269287;0.0001817;0.0091;260.3921;136.0994;150.9698;0;-2.42E-6;0;Intelsat
1.00271642;0.0001788;0.0111;86.4811;310.0449;313.0395;0;-2.41E-6;0;Intelsat
1.00271311;0.000179;0.0107;93.8995;298.1074;40.134;0;-2.41E-6;0;Intelsat
1.00271461;0.0001807;0.006;281.9833;110.5711;60.687;0;-2.41E-6;0;Intelsat
1.00271457;0.0001821;0.0057;239.9425;152.2809;165.0083;0;-2.41E-6;0;Intelsat
1.00271536;0.0001831;0.0063;240.8573;153.9038;291.6941;0;-2.4E-6;0;Intelsat
1.00271316;0.0001832;0.0026;288.7132;104.9516;166.0116;0;-2.4E-6;0;Intelsat
1.00271094;0.0001841;0.0027;33.917;358.4404;296.9133;0;-2.4E-6;0;Intelsat
1.00271026;0.0001827;0.0036;117.5067;275.2092;35.3756;0;-2.4E-6;0;Intelsat
1.00270851;0.0001817;0.0036;330.989;66.239;61.5948;0;-2.4E-6;0;Intelsat
1.00270697;0.0001807;0.0029;276.1312;120.5534;165.7875;0;-2.4E-6;0;Intelsat
1.00270415;0.0001842;0.0056;314.8985;81.8058;269.4398;0;-2.4E-6;0;Intelsat
1.00270519;0.0001822;0.0031;307.0141;89.9477;32.1107;0;-2.4E-6;0;Intelsat
1.00272037;0.0001711;0.0112;285.163;110.6716;47.7625;0;-2.43E-6;0;Intelsat
1.00271085;0.0001716;0.0135;278.7515;119.4696;157.9131;0;-2.46E-6;0;Intelsat
1.00270908;0.0001739;0.0138;279.4982;119.6739;301.2751;0;-2.47E-6;0;Intelsat
1.00271894;0.0001873;0.0163;282.6474;115.9303;48.3325;0;-2.52E-6;0;Intelsat
1.00271782;0.000189;0.0164;281.4847;117.9439;177.067;0;-2.53E-6;0;Intelsat
1.00271651;0.0001909;0.0167;283.6637;116.7874;305.5978;0;-2.54E-6;0;Intelsat
1.00271543;0.0001919;0.017;285.1557;115.6254;39.2366;0;-2.55E-6;0;Intelsat
1.00269049;0.0002075;0.0149;287.6603;120.1281;275.1405;0;-2.57E-6;0;Intelsat
1.00268875;0.0002111;0.0143;288.0545;121.0604;69.3251;0;-2.57E-6;0;Intelsat
1.00268695;0.0002142;0.0136;290.4857;121.018;274.2307;0;-2.58E-6;0;Intelsat
1.00268592;0.0002172;0.0132;291.2857;121.5366;42.4955;0;-2.58E-6;0;Intelsat
1.00268475;0.00022;0.0126;293.7261;120.0783;198.6486;0;-2.59E-6;0;Intelsat
